OBJECT_NAME,OBJECT_ID,EPOCH,MEAN_MOTION,ECCENTRICITY,INCLINATION,RA_OF_ASC_NODE,ARG_OF_PERICENTER,MEAN_ANOMALY,EPHEMERIS_TYPE,CLASSIFICATION_TYPE,NORAD_CAT_ID,ELEMENT_SET_NO,REV_AT_EPOCH,BSTAR,MEAN_MOTION_DOT,MEAN_MOTION_DDOT
CHUANGXIN 20B (CX-20B),2023-181B,2026-07-08T05:23:57.687936,13.41493283,.0011175,49.9577,249.6360,331.8955,28.1318,0,U,58426,999,12856,.7508E-4,-.86E-6,0
CHUANGXIN 20C (CX-20C),2023-181C,2026-07-08T05:20:12.488064,13.41486969,.0011479,49.9584,249.6234,319.9964,40.0067,0,U,58427,999,12857,.67092E-4,-.91E-6,0
COSMOS 2572,2023-182A,2026-07-08T03:23:41.769024,15.90043481,.0015879,96.6803,292.8782,191.2308,168.8614,0,U,58435,999,15178,.30275E-4,.853E-4,.19048E-5
STARLINK-30869,2023-183A,2026-07-07T17:47:11.378688,15.27560436,.000217,42.9981,83.7135,206.4589,153.6152,0,U,58437,999,14509,-.85076E-3,-.23586E-3,0
STARLINK-30969,2023-183B,2026-07-08T01:32:26.147328,15.27587764,.0001508,42.9972,81.8470,18.7474,341.3433,0,U,58438,999,14514,.33267E-4,.654E-5,0
STARLINK-30951,2023-183C,2026-07-08T01:43:31.732320,15.27579207,.000096,43.0012,81.9036,263.5240,96.5502,0,U,58439,999,14514,.38037E-4,.785E-5,0
STARLINK-30950,2023-183D,2026-07-08T04:48:15.343776,15.27571912,.0001546,43.0025,244.5489,270.8084,89.2591,0,U,58440,999,14746,.11815E-3,.299E-4,0
STARLINK-30942,2023-183E,2026-07-08T02:16:39.606240,15.27561192,.0000793,43.0043,81.2224,324.0788,36.0010,0,U,58441,999,14515,.10204E-3,.2545E-4,0
STARLINK-30959,2023-183F,2026-07-08T02:31:26.770080,15.27568669,.0000286,43.0022,81.2974,343.8031,16.2812,0,U,58442,999,14515,.1487E-3,.3831E-4,0
STARLINK-30971,2023-183G,2026-07-08T00:35:16.946016,15.27572694,.0001978,43.0051,82.3962,251.0506,109.0132,0,U,58443,999,14513,.11024E-3,.2772E-4,0
STARLINK-30963,2023-183H,2026-07-08T02:36:59.480064,15.27566660,.0001166,43.0049,81.3147,211.8408,148.2373,0,U,58444,999,14515,.15424E-3,.3983E-4,0
STARLINK-30961,2023-183J,2026-07-07T23:34:13.000224,15.27583326,.0001403,43.0035,82.0839,271.5487,88.5204,0,U,58445,999,14513,.73773E-4,.1769E-4,0
STARLINK-30975,2023-183K,2026-07-08T01:06:30.983616,15.27590989,.0001354,43.0011,81.6967,269.2543,90.8154,0,U,58446,999,14516,.23687E-4,.39E-5,0
STARLINK-30976,2023-183L,2026-07-08T01:25:04.322784,15.27592602,.0005271,42.9838,81.8472,52.9218,307.2115,0,U,58447,999,14514,.48239E-4,.1065E-4,0
STARLINK-30926,2023-183M,2026-07-08T03:54:28.073088,15.27587354,.0001497,43.0047,80.8259,262.1542,97.9140,0,U,58448,999,14516,.54938E-4,.125E-4,0
STARLINK-30943,2023-183N,2026-07-08T00:13:48.970848,15.27569002,.0000979,43.0055,56.2518,278.7413,81.3328,0,U,58449,999,14543,.1975E-3,.5175E-4,0
STARLINK-30946,2023-183P,2026-07-07T22:18:33.938208,15.27566987,.0001495,43.0024,82.5526,281.9644,78.1040,0,U,58450,999,14512,.14364E-3,.3691E-4,0
STARLINK-30944,2023-183Q,2026-07-07T17:23:09.524256,15.27606475,.0001374,42.9977,83.5929,265.7364,94.3331,0,U,58451,999,14506,.39284E-3,.10572E-3,0
STARLINK-30928,2023-183R,2026-07-08T01:19:28.720128,15.27590246,.0002002,42.9999,81.7724,274.9011,85.1612,0,U,58452,999,14513,.32316E-4,.627E-5,0
STARLINK-30957,2023-183S,2026-07-06T02:07:24.137184,15.27534247,.00006911,42.9971,92.8150,265.6686,94.4086,0,U,58453,999,14484,-.14992333E-3,-.4379E-4,0
STARLINK-30966,2023-183T,2026-07-08T01:17:37.842144,15.27573899,.0001189,43.0002,81.7618,297.5326,62.5404,0,U,58454,999,14514,-.31066E-4,-.1117E-4,0
STARLINK-30935,2023-183U,2026-07-08T01:58:19.920864,15.27583663,.0000795,43.0041,81.9739,333.5949,26.4862,0,U,58455,999,14514,.58622E-4,.1352E-4,0
STARLINK-30958,2023-183W,2026-07-08T02:25:52.808160,15.27590810,.0001775,43.0015,81.2640,261.7184,98.3467,0,U,58457,999,14515,-.39853E-4,-.1359E-4,0
STARLINK-30962,2023-183X,2026-07-08T00:40:40.853568,15.27481497,.000117,43.0043,81.5785,11.1048,348.9830,0,U,58458,999,14514,.98616E-3,.26892E-3,0
STARLINK-30977,2023-183Y,2026-07-08T02:03:53.170848,15.27585378,.000197,43.0020,82.0003,258.0472,102.0159,0,U,58459,999,14514,.13999E-3,.3592E-4,0
GNOMES-4,2023-185A,2026-07-08T03:40:14.649312,15.00933855,.0007662,97.4833,245.5450,257.9543,102.0823,0,U,58462,999,14243,.16994E-3,.2109E-4,0
KORSAT-7,2023-185B,2026-07-08T04:30:52.780032,15.00947446,.0022989,97.6344,253.1264,255.6898,104.1773,0,U,58463,999,14243,.13003E-3,.1605E-4,0
KOYOH,2023-185C,2026-07-08T04:30:00.205632,15.18429144,.0005949,97.5305,261.3288,222.4172,137.6602,0,U,58464,999,14331,.15559E-3,.3134E-4,0
UHETSAT,2023-185E,2026-07-08T03:57:58.300704,15.31478922,.0011606,97.3468,256.4466,230.7398,129.2815,0,U,58466,999,14450,.1384E-3,.4137E-4,0
SPIRIT,2023-185G,2026-07-08T04:31:51.721248,15.94858515,.0005778,97.3239,275.8457,207.2534,152.8439,0,U,58468,999,14591,.67061E-3,.256052E-2,.27434E-4
