CHUANGXIN 20B (CX-20B)  
1 58426U 23181B   26189.22497324 -.00000086  00000+0  75080-4 0  9997
2 58426  49.9577 249.6360 0011175 331.8955  28.1318 13.41493283128560
CHUANGXIN 20C (CX-20C)  
1 58427U 23181C   26189.22236676 -.00000091  00000+0  67092-4 0  9999
2 58427  49.9584 249.6234 0011479 319.9964  40.0067 13.41486969128571
COSMOS 2572             
1 58435U 23182A   26189.14145566  .00008530  19048-5  30275-4 0  9993
2 58435  96.6803 292.8782 0015879 191.2308 168.8614 15.90043481151782
STARLINK-30869          
1 58437U 23183A   26188.74110392 -.00023586  00000+0 -85076-3 0  9990
2 58437  42.9981  83.7135 0002170 206.4589 153.6152 15.27560436145094
STARLINK-30969          
1 58438U 23183B   26189.06419152  .00000654  00000+0  33267-4 0  9998
2 58438  42.9972  81.8470 0001508  18.7474 341.3433 15.27587764145144
STARLINK-30951          
1 58439U 23183C   26189.07189505  .00000785  00000+0  38037-4 0  9991
2 58439  43.0012  81.9036 0000960 263.5240  96.5502 15.27579207145142
STARLINK-30950          
1 58440U 23183D   26189.20017759  .00002990  00000+0  11815-3 0  9993
2 58440  43.0025 244.5489 0001546 270.8084  89.2591 15.27571912147464
STARLINK-30942          
1 58441U 23183E   26189.09490285  .00002545  00000+0  10204-3 0  9997
2 58441  43.0043  81.2224 0000793 324.0788  36.0010 15.27561192145153
STARLINK-30959          
1 58442U 23183F   26189.10517095  .00003831  00000+0  14870-3 0  9991
2 58442  43.0022  81.2974 0000286 343.8031  16.2812 15.27568669145156
STARLINK-30971          
1 58443U 23183G   26189.02450169  .00002772  00000+0  11024-3 0  9992
2 58443  43.0051  82.3962 0001978 251.0506 109.0132 15.27572694145131
STARLINK-30963          
1 58444U 23183H   26189.10902176  .00003983  00000+0  15424-3 0  9995
2 58444  43.0049  81.3147 0001166 211.8408 148.2373 15.27566660145157
STARLINK-30961          
1 58445U 23183J   26188.98209491  .00001769  00000+0  73773-4 0  9993
2 58445  43.0035  82.0839 0001403 271.5487  88.5204 15.27583326145138
STARLINK-30975          
1 58446U 23183K   26189.04619194  .00000390  00000+0  23687-4 0  9995
2 58446  43.0011  81.6967 0001354 269.2543  90.8154 15.27590989145168
STARLINK-30976          
1 58447U 23183L   26189.05907781  .00001065  00000+0  48239-4 0  9999
2 58447  42.9838  81.8472 0005271  52.9218 307.2115 15.27592602145149
STARLINK-30926          
1 58448U 23183M   26189.16282492  .00001250  00000+0  54938-4 0  9996
2 58448  43.0047  80.8259 0001497 262.1542  97.9140 15.27587354145168
STARLINK-30943          
1 58449U 23183N   26189.00959457  .00005175  00000+0  19750-3 0  9994
2 58449  43.0055  56.2518 0000979 278.7413  81.3328 15.27569002145432
STARLINK-30946          
1 58450U 23183P   26188.92955947  .00003691  00000+0  14364-3 0  9993
2 58450  43.0024  82.5526 0001495 281.9644  78.1040 15.27566987145127
STARLINK-30944          
1 58451U 23183Q   26188.72441579  .00010572  00000+0  39284-3 0  9997
2 58451  42.9977  83.5929 0001374 265.7364  94.3331 15.27606475145069
STARLINK-30928          
1 58452U 23183R   26189.05519352  .00000627  00000+0  32316-4 0  9990
2 58452  42.9999  81.7724 0002002 274.9011  85.1612 15.27590246145133
STARLINK-30957          
1 58453U 23183S   26187.08847381 -.00004379  00000+0 -14992-3 0  9997
2 58453  42.9971  92.8150 0000691 265.6686  94.4086 15.27534247144841
STARLINK-30966          
1 58454U 23183T   26189.05391021 -.00001117  00000+0 -31066-4 0  9991
2 58454  43.0002  81.7618 0001189 297.5326  62.5404 15.27573899145143
STARLINK-30935          
1 58455U 23183U   26189.08217501  .00001352  00000+0  58622-4 0  9991
2 58455  43.0041  81.9739 0000795 333.5949  26.4862 15.27583663145144
STARLINK-30958          
1 58457U 23183W   26189.10130565 -.00001359  00000+0 -39853-4 0  9994
2 58457  43.0015  81.2640 0001775 261.7184  98.3467 15.27590810145155
STARLINK-30962          
1 58458U 23183X   26189.02825062  .00026892  00000+0  98616-3 0  9997
2 58458  43.0043  81.5785 0001170  11.1048 348.9830 15.27481497145142
STARLINK-30977          
1 58459U 23183Y   26189.08603207  .00003592  00000+0  13999-3 0  9992
2 58459  43.0020  82.0003 0001970 258.0472 102.0159 15.27585378145144
GNOMES-4                
1 58462U 23185A   26189.15294733  .00002109  00000+0  16994-3 0  9997
2 58462  97.4833 245.5450 0007662 257.9543 102.0823 15.00933855142431
KORSAT-7                
1 58463U 23185B   26189.18811088  .00001605  00000+0  13003-3 0  9997
2 58463  97.6344 253.1264 0022989 255.6898 104.1773 15.00947446142434
KOYOH                   
1 58464U 23185C   26189.18750238  .00003134  00000+0  15559-3 0  9994
2 58464  97.5305 261.3288 0005949 222.4172 137.6602 15.18429144143311
UHETSAT                 
1 58466U 23185E   26189.16525811  .00004137  00000+0  13840-3 0  9996
2 58466  97.3468 256.4466 0011606 230.7398 129.2815 15.31478922144501
SPIRIT                  
1 58468U 23185G   26189.18879307  .00256052  27434-4  67061-3 0  9996
2 58468  97.3239 275.8457 0005778 207.2534 152.8439 15.94858515145917
